GLOBALSTAR M045         
1 25676U 99019A   24238.91883965 -.00000100  00000+0 -53121-4 0  9990
2 25676  51.9972  66.8346 0001097  59.2243  89.3671 12.27043357157142
GLOBALSTAR M019         
1 25677U 99019B   24238.90340458 -.00000029  00000+0  63933-3 0  9995
2 25677  51.9863 176.4684 0001372  65.9505   4.6794 12.13859914149287
GLOBALSTAR M044         
1 25678U 99019C   24238.92996302 -.00000068  00000+0  21824-3 0  9999
2 25678  51.9959  90.8181 0005992 183.5703 312.3979 11.90237147136163
GLOBALSTAR M042         
1 25679U 99019D   24239.11774887 -.00000078  00000+0  13808-3 0  9998
2 25679  52.0003 163.9325 0003415  48.3282 323.4342 12.22067352149252
GLOBALSTAR M025         
1 25770U 99031A   24238.93031985 -.00000041  00000+0  81240-3 0  9993
2 25770  51.9802 123.2539 0002097  22.7547 349.2967 11.22553082448553
GLOBALSTAR M049         
1 25771U 99031B   24238.90693234  .00000011  00000+0  26281-2 0  9991
2 25771  51.9863 143.2310 0002494 245.4861 114.5675 11.12107802 84575
GLOBALSTAR M047         
1 25772U 99031C   24238.93637519 -.00000038  00000+0  87593-3 0  9993
2 25772  51.9818 168.3412 0016262 113.9060 246.3451 11.31922238437673
GLOBALSTAR M052         
1 25773U 99031D   24238.78675376 -.00000047  00000+0  64950-3 0  9992
2 25773  51.9834 256.3370 0002432  39.8559 130.8317 11.15053436445557
