<?xml version="1.0" encoding="UTF-8"?>
<ndm xmlns:xsi="http://www.w3.org/2001/XMLSchema-instance" xsi:noNamespaceSchemaLocation="https://sanaregistry.org/r/ndmxml_unqualified/ndmxml-2.0.0-master-2.0.xsd">
<omm id="CCSDS_OMM_VERS" version="2.0">
<header><CREATION_DATE/><ORIGINATOR/></header><body><segment><metadata><OBJECT_NAME>GLOBALSTAR M045</OBJECT_NAME><OBJECT_ID>1999-019A</OBJECT_ID><CENTER_NAME>EARTH</CENTER_NAME><REF_FRAME>TEME</REF_FRAME><TIME_SYSTEM>UTC</TIME_SYSTEM><MEAN_ELEMENT_THEORY>SGP4</MEAN_ELEMENT_THEORY></metadata><data><meanElements><EPOCH>2024-08-25T22:03:07.745760</EPOCH><MEAN_MOTION>12.27043357</MEAN_MOTION><ECCENTRICITY>.0001097</ECCENTRICITY><INCLINATION>51.9972</INCLINATION><RA_OF_ASC_NODE>66.8346</RA_OF_ASC_NODE><ARG_OF_PERICENTER>59.2243</ARG_OF_PERICENTER><MEAN_ANOMALY>89.3671</MEAN_ANOMALY></meanElements><tleParameters><EPHEMERIS_TYPE>0</EPHEMERIS_TYPE><CLASSIFICATION_TYPE>U</CLASSIFICATION_TYPE><NORAD_CAT_ID>25676</NORAD_CAT_ID><ELEMENT_SET_NO>999</ELEMENT_SET_NO><REV_AT_EPOCH>15714</REV_AT_EPOCH><BSTAR>-.53121E-4</BSTAR><MEAN_MOTION_DOT>-.1E-5</MEAN_MOTION_DOT><MEAN_MOTION_DDOT>0</MEAN_MOTION_DDOT></tleParameters></data></segment></body></omm>
<omm id="CCSDS_OMM_VERS" version="2.0">
<header><CREATION_DATE/><ORIGINATOR/></header><body><segment><metadata><OBJECT_NAME>GLOBALSTAR M019</OBJECT_NAME><OBJECT_ID>1999-019B</OBJECT_ID><CENTER_NAME>EARTH</CENTER_NAME><REF_FRAME>TEME</REF_FRAME><TIME_SYSTEM>UTC</TIME_SYSTEM><MEAN_ELEMENT_THEORY>SGP4</MEAN_ELEMENT_THEORY></metadata><data><meanElements><EPOCH>2024-08-25T21:40:54.155712</EPOCH><MEAN_MOTION>12.13859914</MEAN_MOTION><ECCENTRICITY>.0001372</ECCENTRICITY><INCLINATION>51.9863</INCLINATION><RA_OF_ASC_NODE>176.4684</RA_OF_ASC_NODE><ARG_OF_PERICENTER>65.9505</ARG_OF_PERICENTER><MEAN_ANOMALY>4.6794</MEAN_ANOMALY></meanElements><tleParameters><EPHEMERIS_TYPE>0</EPHEMERIS_TYPE><CLASSIFICATION_TYPE>U</CLASSIFICATION_TYPE><NORAD_CAT_ID>25677</NORAD_CAT_ID><ELEMENT_SET_NO>999</ELEMENT_SET_NO><REV_AT_EPOCH>14928</REV_AT_EPOCH><BSTAR>.63933E-3</BSTAR><MEAN_MOTION_DOT>-.29E-6</MEAN_MOTION_DOT><MEAN_MOTION_DDOT>0</MEAN_MOTION_DDOT></tleParameters></data></segment></body></omm>
<omm id="CCSDS_OMM_VERS" version="2.0">
<header><CREATION_DATE/><ORIGINATOR/></header><body><segment><metadata><OBJECT_NAME>GLOBALSTAR M044</OBJECT_NAME><OBJECT_ID>1999-019C</OBJECT_ID><CENTER_NAME>EARTH</CENTER_NAME><REF_FRAME>TEME</REF_FRAME><TIME_SYSTEM>UTC</TIME_SYSTEM><MEAN_ELEMENT_THEORY>SGP4</MEAN_ELEMENT_THEORY></metadata><data><meanElements><EPOCH>2024-08-25T22:19:08.804928</EPOCH><MEAN_MOTION>11.90237147</MEAN_MOTION><ECCENTRICITY>.0005992</ECCENTRICITY><INCLINATION>51.9959</INCLINATION><RA_OF_ASC_NODE>90.8181</RA_OF_ASC_NODE><ARG_OF_PERICENTER>183.5703</ARG_OF_PERICENTER><MEAN_ANOMALY>312.3979</MEAN_ANOMALY></meanElements><tleParameters><EPHEMERIS_TYPE>0</EPHEMERIS_TYPE><CLASSIFICATION_TYPE>U</CLASSIFICATION_TYPE><NORAD_CAT_ID>25678</NORAD_CAT_ID><ELEMENT_SET_NO>999</ELEMENT_SET_NO><REV_AT_EPOCH>13616</REV_AT_EPOCH><BSTAR>.21824E-3</BSTAR><MEAN_MOTION_DOT>-.68E-6</MEAN_MOTION_DOT><MEAN_MOTION_DDOT>0</MEAN_MOTION_DDOT></tleParameters></data></segment></body></omm>
<omm id="CCSDS_OMM_VERS" version="2.0">
<header><CREATION_DATE/><ORIGINATOR/></header><body><segment><metadata><OBJECT_NAME>GLOBALSTAR M042</OBJECT_NAME><OBJECT_ID>1999-019D</OBJECT_ID><CENTER_NAME>EARTH</CENTER_NAME><REF_FRAME>TEME</REF_FRAME><TIME_SYSTEM>UTC</TIME_SYSTEM><MEAN_ELEMENT_THEORY>SGP4</MEAN_ELEMENT_THEORY></metadata><data><meanElements><EPOCH>2024-08-26T02:49:33.502368</EPOCH><MEAN_MOTION>12.22067352</MEAN_MOTION><ECCENTRICITY>.0003415</ECCENTRICITY><INCLINATION>52.0003</INCLINATION><RA_OF_ASC_NODE>163.9325</RA_OF_ASC_NODE><ARG_OF_PERICENTER>48.3282</ARG_OF_PERICENTER><MEAN_ANOMALY>323.4342</MEAN_ANOMALY></meanElements><tleParameters><EPHEMERIS_TYPE>0</EPHEMERIS_TYPE><CLASSIFICATION_TYPE>U</CLASSIFICATION_TYPE><NORAD_CAT_ID>25679</NORAD_CAT_ID><ELEMENT_SET_NO>999</ELEMENT_SET_NO><REV_AT_EPOCH>14925</REV_AT_EPOCH><BSTAR>.13808E-3</BSTAR><MEAN_MOTION_DOT>-.78E-6</MEAN_MOTION_DOT><MEAN_MOTION_DDOT>0</MEAN_MOTION_DDOT></tleParameters></data></segment></body></omm>
<omm id="CCSDS_OMM_VERS" version="2.0">
<header><CREATION_DATE/><ORIGINATOR/></header><body><segment><metadata><OBJECT_NAME>GLOBALSTAR M025</OBJECT_NAME><OBJECT_ID>1999-031A</OBJECT_ID><CENTER_NAME>EARTH</CENTER_NAME><REF_FRAME>TEME</REF_FRAME><TIME_SYSTEM>UTC</TIME_SYSTEM><MEAN_ELEMENT_THEORY>SGP4</MEAN_ELEMENT_THEORY></metadata><data><meanElements><EPOCH>2024-08-25T22:19:39.635040</EPOCH><MEAN_MOTION>11.22553082</MEAN_MOTION><ECCENTRICITY>.0002097</ECCENTRICITY><INCLINATION>51.9802</INCLINATION><RA_OF_ASC_NODE>123.2539</RA_OF_ASC_NODE><ARG_OF_PERICENTER>22.7547</ARG_OF_PERICENTER><MEAN_ANOMALY>349.2967</MEAN_ANOMALY></meanElements><tleParameters><EPHEMERIS_TYPE>0</EPHEMERIS_TYPE><CLASSIFICATION_TYPE>U</CLASSIFICATION_TYPE><NORAD_CAT_ID>25770</NORAD_CAT_ID><ELEMENT_SET_NO>999</ELEMENT_SET_NO><REV_AT_EPOCH>44855</REV_AT_EPOCH><BSTAR>.8124E-3</BSTAR><MEAN_MOTION_DOT>-.41E-6</MEAN_MOTION_DOT><MEAN_MOTION_DDOT>0</MEAN_MOTION_DDOT></tleParameters></data></segment></body></omm>
<omm id="CCSDS_OMM_VERS" version="2.0">
<header><CREATION_DATE/><ORIGINATOR/></header><body><segment><metadata><OBJECT_NAME>GLOBALSTAR M049</OBJECT_NAME><OBJECT_ID>1999-031B</OBJECT_ID><CENTER_NAME>EARTH</CENTER_NAME><REF_FRAME>TEME</REF_FRAME><TIME_SYSTEM>UTC</TIME_SYSTEM><MEAN_ELEMENT_THEORY>SGP4</MEAN_ELEMENT_THEORY></metadata><data><meanElements><EPOCH>2024-08-25T21:45:58.954176</EPOCH><MEAN_MOTION>11.12107802</MEAN_MOTION><ECCENTRICITY>.0002494</ECCENTRICITY><INCLINATION>51.9863</INCLINATION><RA_OF_ASC_NODE>143.2310</RA_OF_ASC_NODE><ARG_OF_PERICENTER>245.4861</ARG_OF_PERICENTER><MEAN_ANOMALY>114.5675</MEAN_ANOMALY></meanElements><tleParameters><EPHEMERIS_TYPE>0</EPHEMERIS_TYPE><CLASSIFICATION_TYPE>U</CLASSIFICATION_TYPE><NORAD_CAT_ID>25771</NORAD_CAT_ID><ELEMENT_SET_NO>999</ELEMENT_SET_NO><REV_AT_EPOCH>8457</REV_AT_EPOCH><BSTAR>.26281E-2</BSTAR><MEAN_MOTION_DOT>.11E-6</MEAN_MOTION_DOT><MEAN_MOTION_DDOT>0</MEAN_MOTION_DDOT></tleParameters></data></segment></body></omm>
<omm id="CCSDS_OMM_VERS" version="2.0">
<header><CREATION_DATE/><ORIGINATOR/></header><body><segment><metadata><OBJECT_NAME>GLOBALSTAR M047</OBJECT_NAME><OBJECT_ID>1999-031C</OBJECT_ID><CENTER_NAME>EARTH</CENTER_NAME><REF_FRAME>TEME</REF_FRAME><TIME_SYSTEM>UTC</TIME_SYSTEM><MEAN_ELEMENT_THEORY>SGP4</MEAN_ELEMENT_THEORY></metadata><data><meanElements><EPOCH>2024-08-25T22:28:22.816416</EPOCH><MEAN_MOTION>11.31922238</MEAN_MOTION><ECCENTRICITY>.0016262</ECCENTRICITY><INCLINATION>51.9818</INCLINATION><RA_OF_ASC_NODE>168.3412</RA_OF_ASC_NODE><ARG_OF_PERICENTER>113.9060</ARG_OF_PERICENTER><MEAN_ANOMALY>246.3451</MEAN_ANOMALY></meanElements><tleParameters><EPHEMERIS_TYPE>0</EPHEMERIS_TYPE><CLASSIFICATION_TYPE>U</CLASSIFICATION_TYPE><NORAD_CAT_ID>25772</NORAD_CAT_ID><ELEMENT_SET_NO>999</ELEMENT_SET_NO><REV_AT_EPOCH>43767</REV_AT_EPOCH><BSTAR>.87593E-3</BSTAR><MEAN_MOTION_DOT>-.38E-6</MEAN_MOTION_DOT><MEAN_MOTION_DDOT>0</MEAN_MOTION_DDOT></tleParameters></data></segment></body></omm>
<omm id="CCSDS_OMM_VERS" version="2.0">
<header><CREATION_DATE/><ORIGINATOR/></header><body><segment><metadata><OBJECT_NAME>GLOBALSTAR M052</OBJECT_NAME><OBJECT_ID>1999-031D</OBJECT_ID><CENTER_NAME>EARTH</CENTER_NAME><REF_FRAME>TEME</REF_FRAME><TIME_SYSTEM>UTC</TIME_SYSTEM><MEAN_ELEMENT_THEORY>SGP4</MEAN_ELEMENT_THEORY></metadata><data><meanElements><EPOCH>2024-08-25T18:52:55.524864</EPOCH><MEAN_MOTION>11.15053436</MEAN_MOTION><ECCENTRICITY>.0002432</ECCENTRICITY><INCLINATION>51.9834</INCLINATION><RA_OF_ASC_NODE>256.3370</RA_OF_ASC_NODE><ARG_OF_PERICENTER>39.8559</ARG_OF_PERICENTER><MEAN_ANOMALY>130.8317</MEAN_ANOMALY></meanElements><tleParameters><EPHEMERIS_TYPE>0</EPHEMERIS_TYPE><CLASSIFICATION_TYPE>U</CLASSIFICATION_TYPE><NORAD_CAT_ID>25773</NORAD_CAT_ID><ELEMENT_SET_NO>999</ELEMENT_SET_NO><REV_AT_EPOCH>44555</REV_AT_EPOCH><BSTAR>.6495E-3</BSTAR><MEAN_MOTION_DOT>-.47E-6</MEAN_MOTION_DOT><MEAN_MOTION_DDOT>0</MEAN_MOTION_DDOT></tleParameters></data></segment></body></omm>

</ndm>
